$$SOE
2460154.500000000, A.D. 2023-Jul-29 00:00:00.0000, -4.587905563551514E+08, 2.767795473617845E+08, -8.581820477385879E+07,
2460161.500000000, A.D. 2023-Aug-05 00:00:00.0000, -4.630798903349684E+08, 2.687214104556872E+08, -8.523101405662383E+07,
2460168.500000000, A.D. 2023-Aug-12 00:00:00.0000, -4.672281960383996E+08, 2.605813863845612E+08, -8.461785362794413E+07,
2460175.500000000, A.D. 2023-Aug-19 00:00:00.0000, -4.712338088915414E+08, 2.523617283133548E+08, -8.397883721901011E+07,
2460182.500000000, A.D. 2023-Aug-26 00:00:00.0000, -4.750950902580211E+08, 2.440647219151114E+08, -8.331408572455858E+07,
2460189.500000000, A.D. 2023-Sep-02 00:00:00.0000, -4.788104280761193E+08, 2.356926854366775E+08, -8.262372727421206E+07,
2460196.500000000, A.D. 2023-Sep-09 00:00:00.0000, -4.823782374998361E+08, 2.272479696446851E+08, -8.190789731608677E+07,
2460203.500000000, A.D. 2023-Sep-16 00:00:00.0000, -4.857969613756322E+08, 2.187329575930478E+08, -8.116673873270680E+07,
2460210.500000000, A.D. 2023-Sep-23 00:00:00.0000, -4.890650701385043E+08, 2.101500644979238E+08, -8.040040200378284E+07,
2460217.500000000, A.D. 2023-Sep-30 00:00:00.0000, -4.921810614670964E+08, 2.015017389098354E+08, -7.960904528718229E+07,
2460224.500000000, A.D. 2023-Oct-07 00:00:00.0000, -4.951434620523306E+08, 1.927904646391972E+08, -7.879283424653214E+07,
2460231.500000000, A.D. 2023-Oct-14 00:00:00.0000, -4.979508304404453E+08, 1.840187601219301E+08, -7.795194199162851E+07,
2460238.500000000, A.D. 2023-Oct-21 00:00:00.0000, -5.006017577211185E+08, 1.751891768274539E+08, -7.708654929627074E+07,
2460245.500000000, A.D. 2023-Oct-28 00:00:00.0000, -5.030948674844213E+08, 1.663042989675124E+08, -7.619684477750064E+07,
2460252.500000000, A.D. 2023-Nov-04 00:00:00.0000, -5.054288162973769E+08, 1.573667437340762E+08, -7.528302498437817E+07,
2460259.500000000, A.D. 2023-Nov-11 00:00:00.0000, -5.076022945233080E+08, 1.483791614657951E+08, -7.434529446149790E+07,
2460266.500000000, A.D. 2023-Nov-18 00:00:00.0000, -5.096140272647372E+08, 1.393442356780486E+08, -7.338386581235830E+07,
2460273.500000000, A.D. 2023-Nov-25 00:00:00.0000, -5.114627753571172E+08, 1.302646829783455E+08, -7.239895976710442E+07,
2460280.500000000, A.D. 2023-Dec-02 00:00:00.0000, -5.131473363852974E+08, 1.211432528550638E+08, -7.139080525787419E+07,
2460287.500000000, A.D. 2023-Dec-09 00:00:00.0000, -5.146665456448458E+08, 1.119827272799102E+08, -7.035963951345773E+07,
2460294.500000000, A.D. 2023-Dec-16 00:00:00.0000, -5.160192767602484E+08, 1.027859201360029E+08, -6.930570819833043E+07,
2460301.500000000, A.D. 2023-Dec-23 00:00:00.0000, -5.172044416105741E+08, 9.355567715812573E+07, -6.822926557145837E+07,
2460308.500000000, A.D. 2023-Dec-30 00:00:00.0000, -5.182209909017177E+08, 8.429487743290053E+07, -6.713057445583087E+07,
2460315.500000000, A.D. 2024-Jan-06 00:00:00.0000, -5.190679171575035E+08, 7.500643409627393E+07, -6.600990604905196E+07,
2460322.500000000, A.D. 2024-Jan-13 00:00:00.0000, -5.197442569572247E+08, 6.569329242012668E+07, -6.486754001386255E+07,
2460329.500000000, A.D. 2024-Jan-20 00:00:00.0000, -5.202490911954228E+08, 5.635842837128373E+07, -6.370376470868635E+07,
2460336.500000000, A.D. 2024-Jan-27 00:00:00.0000, -5.205815453924384E+08, 4.700484829315848E+07, -6.251887731894495E+07,
2460343.500000000, A.D. 2024-Feb-03 00:00:00.0000, -5.207407904850433E+08, 3.763558875998612E+07, -6.131318392786452E+07,
2460350.500000000, A.D. 2024-Feb-10 00:00:00.0000, -5.207260438204715E+08, 2.825371631191854E+07, -6.008699957636607E+07,
2460357.500000000, A.D. 2024-Feb-17 00:00:00.0000, -5.205365702149916E+08, 1.886232707839239E+07, -5.884064832414147E+07,
2460364.500000000, A.D. 2024-Feb-24 00:00:00.0000, -5.201716830404088E+08, 9.464546303776722E+06, -5.757446331383686E+07,
2460371.500000000, A.D. 2024-Mar-02 00:00:00.0000, -5.196307453082659E+08, 6.352774177776277E+04, -5.628878684343958E+07,
2460378.500000000, A.D. 2024-Mar-09 00:00:00.0000, -5.189131706119446E+08, -9.337547145347385E+06, -5.498397046444481E+07,
2460385.500000000, A.D. 2024-Mar-16 00:00:00.0000, -5.180184235301530E+08, -1.873546998663602E+07, -5.366037512558506E+07,
2460392.500000000, A.D. 2024-Mar-23 00:00:00.0000, -5.169460195938550E+08, -2.812700519356843E+07, -5.231837126157971E+07,
2460399.500000000, A.D. 2024-Mar-30 00:00:00.0000, -5.156955270563520E+08, -3.750888857106865E+07, -5.095833862319047E+07,
2460406.500000000, A.D. 2024-Apr-06 00:00:00.0000, -5.142665702100717E+08, -4.687782821781751E+07, -4.958066614718578E+07,
2460413.500000000, A.D. 2024-Apr-13 00:00:00.0000, -5.126588306984375E+08, -5.623050688045794E+07, -4.818575212337016E+07,
2460420.500000000, A.D. 2024-Apr-20 00:00:00.0000, -5.108720477730151E+08, -6.556358308608243E+07, -4.677400435204510E+07,
2460427.500000000, A.D. 2024-Apr-27 00:00:00.0000, -5.089060190111606E+08, -7.487369161634952E+07, -4.534584019822040E+07,
2460434.500000000, A.D. 2024-May-04 00:00:00.0000, -5.067606014056025E+08, -8.415744402853236E+07, -4.390168660798511E+07,
2460441.500000000, A.D. 2024-May-11 00:00:00.0000, -5.044357125872260E+08, -9.341142932648358E+07, -4.244198011704184E+07,
2460448.500000000, A.D. 2024-May-18 00:00:00.0000, -5.019313320982341E+08, -1.026322147606290E+08, -4.096716685679238E+07,
2460455.500000000, A.D. 2024-May-25 00:00:00.0000, -4.992475026896937E+08, -1.118163467647623E+08, -3.947770256032292E+07,
2460462.500000000, A.D. 2024-Jun-01 00:00:00.0000, -4.963843315820889E+08, -1.209603520877646E+08, -3.797405257789861E+07,
2460469.500000000, A.D. 2024-Jun-08 00:00:00.0000, -4.933419914408227E+08, -1.300607391439346E+08, -3.645669192581905E+07,
2460476.500000000, A.D. 2024-Jun-15 00:00:00.0000, -4.901207206651951E+08, -1.391139990375668E+08, -3.492610536006679E+07,
2460483.500000000, A.D. 2024-Jun-22 00:00:00.0000, -4.867208239937451E+08, -1.481166050874987E+08, -3.338278728582310E+07,
2460490.500000000, A.D. 2024-Jun-29 00:00:00.0000, -4.831426755454677E+08, -1.570650126738424E+08, -3.182724145650546E+07,
2460497.500000000, A.D. 2024-Jul-06 00:00:00.0000, -4.793867216508926E+08, -1.659556618794996E+08, -3.025998090651485E+07,
2460504.500000000, A.D. 2024-Jul-13 00:00:00.0000, -4.754534815224249E+08, -1.747849801028546E+08, -2.868152806518205E+07,
2460511.500000000, A.D. 2024-Jul-20 00:00:00.0000, -4.713435477467785E+08, -1.835493834932523E+08, -2.709241477525852E+07,
2460518.500000000, A.D. 2024-Jul-27 00:00:00.0000, -4.670575872525733E+08, -1.922452781698117E+08, -2.549318223377551E+07,
2460525.500000000, A.D. 2024-Aug-03 00:00:00.0000, -4.625963424781057E+08, -2.008690615998170E+08, -2.388438091078420E+07,
2460532.500000000, A.D. 2024-Aug-10 00:00:00.0000, -4.579606325718651E+08, -2.094171241417977E+08, -2.226657046142693E+07,
2460539.500000000, A.D. 2024-Aug-17 00:00:00.0000, -4.531513545764434E+08, -2.178858507314261E+08, -2.064031963369784E+07,
2460546.500000000, A.D. 2024-Aug-24 00:00:00.0000, -4.481694845652307E+08, -2.262716227317976E+08, -1.900620617598155E+07,
2460553.500000000, A.D. 2024-Aug-31 00:00:00.0000, -4.430160786127046E+08, -2.345708200087726E+08, -1.736481675968701E+07,
2460560.500000000, A.D. 2024-Sep-07 00:00:00.0000, -4.376922732286686E+08, -2.427798231045064E+08, -1.571674693991424E+07,
2460567.500000000, A.D. 2024-Sep-14 00:00:00.0000, -4.321992851669081E+08, -2.508950145133622E+08, -1.406260108044346E+07,
2460574.500000000, A.D. 2024-Sep-21 00:00:00.0000, -4.265384126331255E+08, -2.589127786483499E+08, -1.240299202325971E+07,
2460581.500000000, A.D. 2024-Sep-28 00:00:00.0000, -4.207110383769692E+08, -2.668295037271722E+08, -1.073854072184788E+07,
2460588.500000000, A.D. 2024-Oct-05 00:00:00.0000, -4.147186309974037E+08, -2.746415855772040E+08, -9.069876174811125E+06,
2460595.500000000, A.D. 2024-Oct-12 00:00:00.0000, -4.085627448205008E+08, -2.823454303784568E+08, -7.397635382949486E+06,
2460602.500000000, A.D. 2024-Oct-19 00:00:00.0000, -4.022450200973247E+08, -2.899374566135876E+08, -5.722463190915585E+06,
2460609.500000000, A.D. 2024-Oct-26 00:00:00.0000, -3.957671835502357E+08, -2.974140970249367E+08, -4.045012075625390E+06,
2460616.500000000, A.D. 2024-Nov-02 00:00:00.0000, -3.891310490063708E+08, -3.047718007260110E+08, -2.365941916891560E+06,
2460623.500000000, A.D. 2024-Nov-09 00:00:00.0000, -3.823385180181445E+08, -3.120070354456692E+08, -6.859197571843714E+05,
2460630.500000000, A.D. 2024-Nov-16 00:00:00.0000, -3.753915804413474E+08, -3.191162899033166E+08, 9.943804474325478E+05,
2460637.500000000, A.D. 2024-Nov-23 00:00:00.0000, -3.682923149202510E+08, -3.260960763632825E+08, 2.674278077125505E+06,
2460644.500000000, A.D. 2024-Nov-30 00:00:00.0000, -3.610428890676916E+08, -3.329429334091223E+08, 4.353086076585472E+06,
2460651.500000000, A.D. 2024-Dec-07 00:00:00.0000, -3.536455589169518E+08, -3.396534285151038E+08, 6.030111157986522E+06,
2460658.500000000, A.D. 2024-Dec-14 00:00:00.0000, -3.461026683301215E+08, -3.462241591883798E+08, 7.704654142062187E+06,
2460665.500000000, A.D. 2024-Dec-21 00:00:00.0000, -3.384166506771654E+08, -3.526517539200538E+08, 9.376010548749432E+06,
2460672.500000000, A.D. 2024-Dec-28 00:00:00.0000, -3.305900308094568E+08, -3.589328759107068E+08, 1.104347101411407E+07,
2460679.500000000, A.D. 2025-Jan-04 00:00:00.0000, -3.226254247278701E+08, -3.650642271923844E+08, 1.270632148978692E+07,
2460686.500000000, A.D. 2025-Jan-11 00:00:00.0000, -3.145255387637761E+08, -3.710425514840479E+08, 1.436384352795196E+07,
2460693.500000000, A.D. 2025-Jan-18 00:00:00.0000, -3.062931691861439E+08, -3.768646366954240E+08, 1.601531466116409E+07,
2460700.500000000, A.D. 2025-Jan-25 00:00:00.0000, -2.979312019872539E+08, -3.825273175500966E+08, 1.766000881600282E+07,
2460707.500000000, A.D. 2025-Feb-01 00:00:00.0000, -2.894426126537681E+08, -3.880274783546442E+08, 1.929719674076608E+07,
2460714.500000000, A.D. 2025-Feb-08 00:00:00.0000, -2.808304658615745E+08, -3.933620558909110E+08, 2.092614644349335E+07,
$$EOE